{
    "links": {
        "self": "http://www.neowsapp.com/rest/v1/neo/3843370?api_key=iIulBulltgU6a56xZRHN4H3l9WmuAYTsLGpBGhQ2"
    },
    "id": "3843370",
    "neo_reference_id": "3843370",
    "name": "(2019 OQ1)",
    "designation": "2019 OQ1",
    "nasa_jpl_url": "http://ssd.jpl.nasa.gov/sbdb.cgi?sstr=3843370",
    "absolute_magnitude_h": 23.7,
    "estimated_diameter": {
        "kilometers": {
            "estimated_diameter_min": 0.0483676488,
            "estimated_diameter_max": 0.1081533507
        },
        "meters": {
            "estimated_diameter_min": 48.3676488219,
            "estimated_diameter_max": 108.1533506775
        },
        "miles": {
            "estimated_diameter_min": 0.0300542543,
            "estimated_diameter_max": 0.0672033557
        },
        "feet": {
            "estimated_diameter_min": 158.6865169607,
            "estimated_diameter_max": 354.8338390368
        }
    },
    "is_potentially_hazardous_asteroid": false,
    "close_approach_data": [
        {
            "close_approach_date": "2019-07-04",
            "close_approach_date_full": "2019-Jul-04 03:13",
            "epoch_date_close_approach": 1562209980000,
            "relative_velocity": {
                "kilometers_per_second": "10.8906725264",
                "kilometers_per_hour": "39206.4210950227",
                "miles_per_hour": "24361.3453742934"
            },
            "miss_distance": {
                "astronomical": "0.0367787006",
                "lunar": "14.3069145334",
                "kilometers": "5502015.271127722",
                "miles": "3418793.7579056836"
            },
            "orbiting_body": "Earth"
        }
    ],
    "orbital_data": {
        "orbit_id": "3",
        "orbit_determination_date": "2019-08-16 05:29:37",
        "first_observation_date": "2019-07-27",
        "last_observation_date": "2019-08-10",
        "data_arc_in_days": 14,
        "observations_used": 17,
        "orbit_uncertainty": "8",
        "minimum_orbit_intersection": ".0200526",
        "jupiter_tisserand_invariant": "3.505",
        "epoch_osculation": "2458692.5",
        "eccentricity": ".5637942608812445",
        "semi_major_axis": "2.115720979696487",
        "inclination": "7.044485314102024",
        "ascending_node_longitude": "278.9199997751811",
        "orbital_period": "1124.050998518782",
        "perihelion_distance": ".9228896337175634",
        "perihelion_argument": "328.3868811602192",
        "aphelion_distance": "3.30855232567541",
        "perihelion_time": "2458641.693477206394",
        "mean_anomaly": "16.27181349404988",
        "mean_motion": ".3202701660995719",
        "equinox": "J2000",
        "orbit_class": {
            "orbit_class_type": "APO",
            "orbit_class_description": "Near-Earth asteroid orbits which cross the Earth’s orbit similar to that of 1862 Apollo",
            "orbit_class_range": "a (semi-major axis) > 1.0 AU; q (perihelion) < 1.017 AU"
        }
    },
    "is_sentry_object": false
}